[{"OBJECT_NAME":"GEESAT-6 08","OBJECT_ID":"2025-214J","EPOCH":"2026-03-09T22:14:05.578944","MEAN_MOTION":14.83021735,"ECCENTRICITY":0.00096397,"INCLINATION":49.9907,"RA_OF_ASC_NODE":48.1729,"ARG_OF_PERICENTER":195.6006,"MEAN_ANOMALY":164.4636,"EPHEMERIS_TYPE":0,"CLASSIFICATION_TYPE":"U","NORAD_CAT_ID":65720,"ELEMENT_SET_NO":999,"REV_AT_EPOCH":2477,"BSTAR":0.00036802718,"MEAN_MOTION_DOT":2.801e-5,"MEAN_MOTION_DDOT":0},{"OBJECT_NAME":"FENGYUN 1C DEB","OBJECT_ID":"1999-025ALK","EPOCH":"2026-03-09T21:10:09.868224","MEAN_MOTION":14.79109247,"ECCENTRICITY":0.00080855,"INCLINATION":98.7381,"RA_OF_ASC_NODE":219.908,"ARG_OF_PERICENTER":183.3587,"MEAN_ANOMALY":176.7569,"EPHEMERIS_TYPE":0,"CLASSIFICATION_TYPE":"U","NORAD_CAT_ID":30569,"ELEMENT_SET_NO":999,"REV_AT_EPOCH":99492,"BSTAR":0.0044074437,"MEAN_MOTION_DOT":0.00032752,"MEAN_MOTION_DDOT":0}]
